{
  "type": "FeatureCollection",
  "features": [
    {
      "type": "Feature",
      "properties": {
        "norad_id": 25590,
        "name": "COSMOS 2361",
        "group": "musson",
        "lat": -77.32791395861935,
        "lon": -41.78063397030343,
        "alt_km": 973.9144508397139,
        "timestamp": "2025-12-02T10:50:47.543662+00:00",
        "meta_object_name": "COSMOS 2361",
        "meta_object_id": "1998-076A",
        "meta_epoch": "2025-12-02T04:34:49.987776",
        "meta_mean_motion": 13.73215716,
        "meta_eccentricity": 0.0030184,
        "meta_inclination": 82.9342,
        "meta_ra_of_asc_node": 351.8892,
        "meta_arg_of_pericenter": 296.2219,
        "meta_mean_anomaly": 134.4767,
        "meta_ephemeris_type": 0,
        "meta_classification_type": "U",
        "meta_norad_cat_id": 25590,
        "meta_element_set_no": 999,
        "meta_rev_at_epoch": 34966,
        "meta_bstar": 7.729e-05,
        "meta_mean_motion_dot": 8.7e-07,
        "meta_mean_motion_ddot": 0,
        "tle_line1": "1 25590U 98076A   25336.19085634  .00000087  00000+0  77290-4 0  9999",
        "tle_line2": "2 25590  82.9342 351.8892 0030184 296.2219 134.4767 13.73215716349660"
      },
      "geometry": {
        "type": "Point",
        "coordinates": [
          -41.78063397030343,
          -77.32791395861935
        ]
      }
    },
    {
      "type": "Feature",
      "properties": {
        "norad_id": 26818,
        "name": "COSMOS 2378",
        "group": "musson",
        "lat": -40.277842641627835,
        "lon": 1.315401979542828,
        "alt_km": 989.167010380902,
        "timestamp": "2025-12-02T10:50:47.543717+00:00",
        "meta_object_name": "COSMOS 2378",
        "meta_object_id": "2001-023A",
        "meta_epoch": "2025-12-02T04:22:06.895200",
        "meta_mean_motion": 13.74140493,
        "meta_eccentricity": 0.003187,
        "meta_inclination": 82.9281,
        "meta_ra_of_asc_node": 7.5536,
        "meta_arg_of_pericenter": 235.0573,
        "meta_mean_anomaly": 189.5288,
        "meta_ephemeris_type": 0,
        "meta_classification_type": "U",
        "meta_norad_cat_id": 26818,
        "meta_element_set_no": 999,
        "meta_rev_at_epoch": 22778,
        "meta_bstar": 5.6404e-05,
        "meta_mean_motion_dot": 6.8e-07,
        "meta_mean_motion_ddot": 0,
        "tle_line1": "1 26818U 01023A   25336.18202425  .00000068  00000+0  56404-4 0  9990",
        "tle_line2": "2 26818  82.9281   7.5536 0031870 235.0573 189.5288 13.74140493227780"
      },
      "geometry": {
        "type": "Point",
        "coordinates": [
          1.315401979542828,
          -40.277842641627835
        ]
      }
    },
    {
      "type": "Feature",
      "properties": {
        "norad_id": 27436,
        "name": "COSMOS 2389",
        "group": "musson",
        "lat": 50.48209590257602,
        "lon": 125.97270107557745,
        "alt_km": 949.5687549302647,
        "timestamp": "2025-12-02T10:50:47.543733+00:00",
        "meta_object_name": "COSMOS 2389",
        "meta_object_id": "2002-026A",
        "meta_epoch": "2025-12-02T01:50:16.893024",
        "meta_mean_motion": 13.7515292,
        "meta_eccentricity": 0.0047791,
        "meta_inclination": 82.9493,
        "meta_ra_of_asc_node": 314.8795,
        "meta_arg_of_pericenter": 89.6966,
        "meta_mean_anomaly": 341.7031,
        "meta_ephemeris_type": 0,
        "meta_classification_type": "U",
        "meta_norad_cat_id": 27436,
        "meta_element_set_no": 999,
        "meta_rev_at_epoch": 18002,
        "meta_bstar": 6.4939e-05,
        "meta_mean_motion_dot": 7.8e-07,
        "meta_mean_motion_ddot": 0,
        "tle_line1": "1 27436U 02026A   25336.07658441  .00000078  00000+0  64939-4 0  9995",
        "tle_line2": "2 27436  82.9493 314.8795 0047791  89.6966 341.7031 13.75152920180023"
      },
      "geometry": {
        "type": "Point",
        "coordinates": [
          125.97270107557745,
          50.48209590257602
        ]
      }
    },
    {
      "type": "Feature",
      "properties": {
        "norad_id": 27818,
        "name": "COSMOS 2398",
        "group": "musson",
        "lat": -3.990413115043541,
        "lon": 100.77472035710348,
        "alt_km": 977.4766660569003,
        "timestamp": "2025-12-02T10:50:47.543745+00:00",
        "meta_object_name": "COSMOS 2398",
        "meta_object_id": "2003-023A",
        "meta_epoch": "2025-12-02T03:00:40.085280",
        "meta_mean_motion": 13.72384089,
        "meta_eccentricity": 0.0032168,
        "meta_inclination": 82.9473,
        "meta_ra_of_asc_node": 280.5205,
        "meta_arg_of_pericenter": 140.3156,
        "meta_mean_anomaly": 231.2604,
        "meta_ephemeris_type": 0,
        "meta_classification_type": "U",
        "meta_norad_cat_id": 27818,
        "meta_element_set_no": 999,
        "meta_rev_at_epoch": 12671,
        "meta_bstar": 3.4725e-05,
        "meta_mean_motion_dot": 4.7e-07,
        "meta_mean_motion_ddot": 0,
        "tle_line1": "1 27818U 03023A   25336.12546395  .00000047  00000+0  34725-4 0  9993",
        "tle_line2": "2 27818  82.9473 280.5205 0032168 140.3156 231.2604 13.72384089126713"
      },
      "geometry": {
        "type": "Point",
        "coordinates": [
          100.77472035710348,
          -3.990413115043541
        ]
      }
    },
    {
      "type": "Feature",
      "properties": {
        "norad_id": 28380,
        "name": "COSMOS 2407",
        "group": "musson",
        "lat": -53.79842808923874,
        "lon": 50.22642780741395,
        "alt_km": 1010.2119812189321,
        "timestamp": "2025-12-02T10:50:47.543773+00:00",
        "meta_object_name": "COSMOS 2407",
        "meta_object_id": "2004-028A",
        "meta_epoch": "2025-12-02T05:02:02.311008",
        "meta_mean_motion": 13.76311785,
        "meta_eccentricity": 0.0040554,
        "meta_inclination": 82.9615,
        "meta_ra_of_asc_node": 220.6883,
        "meta_arg_of_pericenter": 83.3867,
        "meta_mean_anomaly": 31.4092,
        "meta_ephemeris_type": 0,
        "meta_classification_type": "U",
        "meta_norad_cat_id": 28380,
        "meta_element_set_no": 999,
        "meta_rev_at_epoch": 7278,
        "meta_bstar": 7.6e-05,
        "meta_mean_motion_dot": 9e-07,
        "meta_mean_motion_ddot": 0,
        "tle_line1": "1 28380U 04028A   25336.20974897  .00000090  00000+0  76000-4 0  9995",
        "tle_line2": "2 28380  82.9615 220.6883 0040554  83.3867  31.4092 13.76311785 72781"
      },
      "geometry": {
        "type": "Point",
        "coordinates": [
          50.22642780741395,
          -53.79842808923874
        ]
      }
    },
    {
      "type": "Feature",
      "properties": {
        "norad_id": 28521,
        "name": "COSMOS 2414",
        "group": "musson",
        "lat": 67.33424135015461,
        "lon": -150.3239388562504,
        "alt_km": 934.5350576080027,
        "timestamp": "2025-12-02T10:50:47.543785+00:00",
        "meta_object_name": "COSMOS 2414",
        "meta_object_id": "2005-002A",
        "meta_epoch": "2025-12-02T01:51:55.001088",
        "meta_mean_motion": 13.87900714,
        "meta_eccentricity": 0.0040235,
        "meta_inclination": 82.9498,
        "meta_ra_of_asc_node": 192.7216,
        "meta_arg_of_pericenter": 169.6825,
        "meta_mean_anomaly": 190.5174,
        "meta_ephemeris_type": 0,
        "meta_classification_type": "U",
        "meta_norad_cat_id": 28521,
        "meta_element_set_no": 999,
        "meta_rev_at_epoch": 5647,
        "meta_bstar": 7.4875e-05,
        "meta_mean_motion_dot": 1.05e-06,
        "meta_mean_motion_ddot": 0,
        "tle_line1": "1 28521U 05002A   25336.07771992  .00000105  00000+0  74875-4 0  9996",
        "tle_line2": "2 28521  82.9498 192.7216 0040235 169.6825 190.5174 13.87900714 56478"
      },
      "geometry": {
        "type": "Point",
        "coordinates": [
          -150.3239388562504,
          67.33424135015461
        ]
      }
    },
    {
      "type": "Feature",
      "properties": {
        "norad_id": 32052,
        "name": "COSMOS 2429",
        "group": "musson",
        "lat": -45.436580455844606,
        "lon": -16.292799466145635,
        "alt_km": 998.5108162740189,
        "timestamp": "2025-12-02T10:50:47.543796+00:00",
        "meta_object_name": "COSMOS 2429",
        "meta_object_id": "2007-038A",
        "meta_epoch": "2025-12-02T04:05:03.058656",
        "meta_mean_motion": 13.75147806,
        "meta_eccentricity": 0.0039664,
        "meta_inclination": 82.9805,
        "meta_ra_of_asc_node": 351.1012,
        "meta_arg_of_pericenter": 66.5943,
        "meta_mean_anomaly": 293.9377,
        "meta_ephemeris_type": 0,
        "meta_classification_type": "U",
        "meta_norad_cat_id": 32052,
        "meta_element_set_no": 999,
        "meta_rev_at_epoch": 91457,
        "meta_bstar": 6.4843e-05,
        "meta_mean_motion_dot": 7.8e-07,
        "meta_mean_motion_ddot": 0,
        "tle_line1": "1 32052U 07038A   25336.17017429  .00000078  00000+0  64843-4 0  9993",
        "tle_line2": "2 32052  82.9805 351.1012 0039664  66.5943 293.9377 13.75147806914578"
      },
      "geometry": {
        "type": "Point",
        "coordinates": [
          -16.292799466145635,
          -45.436580455844606
        ]
      }
    },
    {
      "type": "Feature",
      "properties": {
        "norad_id": 35635,
        "name": "COSMOS 2454",
        "group": "musson",
        "lat": 43.48894373922698,
        "lon": -176.8208970237835,
        "alt_km": 917.1065048344763,
        "timestamp": "2025-12-02T10:50:47.543806+00:00",
        "meta_object_name": "COSMOS 2454",
        "meta_object_id": "2009-039A",
        "meta_epoch": "2025-12-02T02:33:26.529984",
        "meta_mean_motion": 13.89926549,
        "meta_eccentricity": 0.0020469,
        "meta_inclination": 82.9557,
        "meta_ra_of_asc_node": 176.7052,
        "meta_arg_of_pericenter": 102.1545,
        "meta_mean_anomaly": 14.8125,
        "meta_ephemeris_type": 0,
        "meta_classification_type": "U",
        "meta_norad_cat_id": 35635,
        "meta_element_set_no": 999,
        "meta_rev_at_epoch": 83002,
        "meta_bstar": 7.2654e-05,
        "meta_mean_motion_dot": 1.06e-06,
        "meta_mean_motion_ddot": 0,
        "tle_line1": "1 35635U 09039A   25336.10655706  .00000106  00000+0  72654-4 0  9996",
        "tle_line2": "2 35635  82.9557 176.7052 0020469 102.1545  14.8125 13.89926549830027"
      },
      "geometry": {
        "type": "Point",
        "coordinates": [
          -176.8208970237835,
          43.48894373922698
        ]
      }
    },
    {
      "type": "Feature",
      "properties": {
        "norad_id": 36519,
        "name": "COSMOS 2463",
        "group": "musson",
        "lat": 40.4604198751841,
        "lon": 40.31984551895274,
        "alt_km": 987.3503548396511,
        "timestamp": "2025-12-02T10:50:47.543817+00:00",
        "meta_object_name": "COSMOS 2463",
        "meta_object_id": "2010-017A",
        "meta_epoch": "2025-12-02T03:55:34.634784",
        "meta_mean_motion": 13.71647684,
        "meta_eccentricity": 0.0035137,
        "meta_inclination": 82.9622,
        "meta_ra_of_asc_node": 34.4839,
        "meta_arg_of_pericenter": 318.378,
        "meta_mean_anomaly": 99.1147,
        "meta_ephemeris_type": 0,
        "meta_classification_type": "U",
        "meta_norad_cat_id": 36519,
        "meta_element_set_no": 999,
        "meta_rev_at_epoch": 78092,
        "meta_bstar": 6.5307e-05,
        "meta_mean_motion_dot": 7.4e-07,
        "meta_mean_motion_ddot": 0,
        "tle_line1": "1 36519U 10017A   25336.16359531  .00000074  00000+0  65307-4 0  9990",
        "tle_line2": "2 36519  82.9622  34.4839 0035137 318.3780  99.1147 13.71647684780929"
      },
      "geometry": {
        "type": "Point",
        "coordinates": [
          40.31984551895274,
          40.4604198751841
        ]
      }
    }
  ]
}